SENTINEL-6              
1 46984U 20086A   23261.82471376 -.00000067  00000+0 -23724-4 0  9995
2 46984  66.0417  56.9673 0007865 268.1755  91.8359 12.80929817131943
